[{"OBJECT_NAME":"STARLINK-5341","OBJECT_ID":"2023-010U","EPOCH":"2026-03-09T22:30:44.851104","MEAN_MOTION":14.98322209,"ECCENTRICITY":0.00023398,"INCLINATION":70.0024,"RA_OF_ASC_NODE":3.9794,"ARG_OF_PERICENTER":273.4777,"MEAN_ANOMALY":86.6114,"EPHEMERIS_TYPE":0,"CLASSIFICATION_TYPE":"U","NORAD_CAT_ID":55287,"ELEMENT_SET_NO":999,"REV_AT_EPOCH":17379,"BSTAR":0.00024384585,"MEAN_MOTION_DOT":2.817e-5,"MEAN_MOTION_DDOT":0},{"OBJECT_NAME":"COSMOS 2581","OBJECT_ID":"2025-026A","EPOCH":"2026-03-09T19:42:28.866816","MEAN_MOTION":14.94736104,"ECCENTRICITY":0.0010574,"INCLINATION":81.9986,"RA_OF_ASC_NODE":175.8565,"ARG_OF_PERICENTER":32.7244,"MEAN_ANOMALY":327.4629,"EPHEMERIS_TYPE":0,"CLASSIFICATION_TYPE":"U","NORAD_CAT_ID":62902,"ELEMENT_SET_NO":999,"REV_AT_EPOCH":5937,"BSTAR":0.00021137,"MEAN_MOTION_DOT":2.32e-5,"MEAN_MOTION_DDOT":0}]
